STARLINK-31209          
1 58883U 24020H   26061.51635717  .00005441  00000+0  19583-3 0  9992
2 58883  53.1614 355.6871 0001030 115.3438 244.7669 15.30175166116975
STARLINK-31315          
1 58884U 24020J   26061.10644093  .00000411  00000+0  25987-4 0  9993
2 58884  53.1611 331.6932 0000978  82.8609 277.2503 15.30192232117278
STARLINK-31318          
1 58885U 24020K   26061.81349933 -.00001827  00000+0 -49611-4 0  9991
2 58885  53.1619 354.6799 0001462 106.4267 253.6895 15.30171730117019
STARLINK-31320          
1 58886U 24020L   26061.19293406  .00001023  00000+0  46658-4 0  9990
2 58886  53.1616 357.2190 0001151  90.9350 269.1783 15.30191173116926
STARLINK-31321          
1 58887U 24020M   26061.52267723  .00001199  00000+0  52611-4 0  9991
2 58887  53.1638 355.7208 0001352  91.4861 268.6295 15.30184307118138
STARLINK-31007          
1 58889U 24020P   26061.52582115  .00006989  00000+0  24771-3 0  9995
2 58889  53.1615 355.7405 0001167  84.9252 275.1882 15.30220746116972
STARLINK-31230          
1 58890U 24020Q   26061.51687311  .00003286  00000+0  12308-3 0  9990
2 58890  53.1610 353.5845 0000900  91.4232 268.6872 15.30186289117002
STARLINK-31245          
1 58891U 24020R   26061.11267939  .00001450  00000+0  61061-4 0  9999
2 58891  53.1601 316.4639 0001381 102.8241 257.2915 15.30204343118648
STARLINK-31255          
1 58893U 24020T   26061.52900657 -.00000238  00000+0  41019-5 0  9993
2 58893  53.1613 355.7601 0001107 110.7698 249.3422 15.30188206116976
STARLINK-31243          
1 58894U 24020U   26061.53217144  .00000264  00000+0  21055-4 0  9992
2 58894  53.1629 355.7787 0001208  93.8372 266.2767 15.30187224116970
STARLINK-31218          
1 58895U 24020V   26061.53533818 -.00000832  00000+0 -15979-4 0  9993
2 58895  53.1632 355.7997 0001393  95.3672 264.7488 15.30187936116976
STARLINK-31190          
1 58897U 24020X   26061.21614873  .00000914  00000+0  42993-4 0  9996
2 58897  53.1621 357.3618 0001296  92.3125 267.8024 15.30190278116924
STARLINK-31317          
1 58931U 24027A   26061.13758530 -.00001078  00000+0 -24282-4 0  9997
2 58931  53.1606 344.5908 0001044  92.2711 267.8409 15.30188313116011
STARLINK-31378          
1 58932U 24027B   26061.20606638 -.00000241  00000+0  39760-5 0  9995
2 58932  53.1606 344.3038 0001284  69.0699 291.0439 15.30188896116183
STARLINK-31350          
1 58933U 24027C   26061.78440783 -.00001006  00000+0 -21874-4 0  9993
2 58933  53.1621 341.5171 0000956  76.1201 283.9906 15.30183285116277
STARLINK-31337          
1 58934U 24027D   26061.19340368 -.00001761  00000+0 -47373-4 0  9997
2 58934  53.1617 344.2275 0001308  90.2200 269.8950 15.30185729116183
