[{"OBJECT_NAME":"STARLINK-31209","OBJECT_ID":"2024-020H","EPOCH":"2026-03-02T12:23:33.259488","MEAN_MOTION":15.30175166,"ECCENTRICITY":0.000103,"INCLINATION":53.1614,"RA_OF_ASC_NODE":355.6871,"ARG_OF_PERICENTER":115.3438,"MEAN_ANOMALY":244.7669,"EPHEMERIS_TYPE":0,"CLASSIFICATION_TYPE":"U","NORAD_CAT_ID":58883,"ELEMENT_SET_NO":999,"REV_AT_EPOCH":11697,"BSTAR":0.00019583,"MEAN_MOTION_DOT":5.441e-5,"MEAN_MOTION_DDOT":0},{"OBJECT_NAME":"STARLINK-31315","OBJECT_ID":"2024-020J","EPOCH":"2026-03-02T02:33:16.496352","MEAN_MOTION":15.30192232,"ECCENTRICITY":9.78e-5,"INCLINATION":53.1611,"RA_OF_ASC_NODE":331.6932,"ARG_OF_PERICENTER":82.8609,"MEAN_ANOMALY":277.2503,"EPHEMERIS_TYPE":0,"CLASSIFICATION_TYPE":"U","NORAD_CAT_ID":58884,"ELEMENT_SET_NO":999,"REV_AT_EPOCH":11727,"BSTAR":2.5987008e-5,"MEAN_MOTION_DOT":4.11e-6,"MEAN_MOTION_DDOT":0},{"OBJECT_NAME":"STARLINK-31318","OBJECT_ID":"2024-020K","EPOCH":"2026-03-02T19:31:26.342112","MEAN_MOTION":15.3017173,"ECCENTRICITY":0.0001462,"INCLINATION":53.1619,"RA_OF_ASC_NODE":354.6799,"ARG_OF_PERICENTER":106.4267,"MEAN_ANOMALY":253.6895,"EPHEMERIS_TYPE":0,"CLASSIFICATION_TYPE":"U","NORAD_CAT_ID":58885,"ELEMENT_SET_NO":999,"REV_AT_EPOCH":11701,"BSTAR":-4.9611e-5,"MEAN_MOTION_DOT":-1.827e-5,"MEAN_MOTION_DDOT":0},{"OBJECT_NAME":"STARLINK-31320","OBJECT_ID":"2024-020L","EPOCH":"2026-03-02T04:37:49.502784","MEAN_MOTION":15.30191173,"ECCENTRICITY":0.0001151,"INCLINATION":53.1616,"RA_OF_ASC_NODE":357.219,"ARG_OF_PERICENTER":90.935,"MEAN_ANOMALY":269.1783,"EPHEMERIS_TYPE":0,"CLASSIFICATION_TYPE":"U","NORAD_CAT_ID":58886,"ELEMENT_SET_NO":999,"REV_AT_EPOCH":11692,"BSTAR":4.6658495e-5,"MEAN_MOTION_DOT":1.023e-5,"MEAN_MOTION_DDOT":0},{"OBJECT_NAME":"STARLINK-31321","OBJECT_ID":"2024-020M","EPOCH":"2026-03-02T12:32:39.312672","MEAN_MOTION":15.30184307,"ECCENTRICITY":0.0001352,"INCLINATION":53.1638,"RA_OF_ASC_NODE":355.7208,"ARG_OF_PERICENTER":91.4861,"MEAN_ANOMALY":268.6295,"EPHEMERIS_TYPE":0,"CLASSIFICATION_TYPE":"U","NORAD_CAT_ID":58887,"ELEMENT_SET_NO":999,"REV_AT_EPOCH":11813,"BSTAR":5.2611e-5,"MEAN_MOTION_DOT":1.199e-5,"MEAN_MOTION_DDOT":0},{"OBJECT_NAME":"STARLINK-31007","OBJECT_ID":"2024-020P","EPOCH":"2026-03-02T12:37:10.947360","MEAN_MOTION":15.30220746,"ECCENTRICITY":0.0001167,"INCLINATION":53.1615,"RA_OF_ASC_NODE":355.7405,"ARG_OF_PERICENTER":84.9252,"MEAN_ANOMALY":275.1882,"EPHEMERIS_TYPE":0,"CLASSIFICATION_TYPE":"U","NORAD_CAT_ID":58889,"ELEMENT_SET_NO":999,"REV_AT_EPOCH":11697,"BSTAR":0.00024771,"MEAN_MOTION_DOT":6.989e-5,"MEAN_MOTION_DDOT":0},{"OBJECT_NAME":"STARLINK-31230","OBJECT_ID":"2024-020Q","EPOCH":"2026-03-02T12:24:17.836704","MEAN_MOTION":15.30186289,"ECCENTRICITY":9.0e-5,"INCLINATION":53.161,"RA_OF_ASC_NODE":353.5845,"ARG_OF_PERICENTER":91.4232,"MEAN_ANOMALY":268.6872,"EPHEMERIS_TYPE":0,"CLASSIFICATION_TYPE":"U","NORAD_CAT_ID":58890,"ELEMENT_SET_NO":999,"REV_AT_EPOCH":11700,"BSTAR":0.00012308,"MEAN_MOTION_DOT":3.286e-5,"MEAN_MOTION_DDOT":0},{"OBJECT_NAME":"STARLINK-31245","OBJECT_ID":"2024-020R","EPOCH":"2026-03-02T02:42:15.499296","MEAN_MOTION":15.30204343,"ECCENTRICITY":0.00013812,"INCLINATION":53.1601,"RA_OF_ASC_NODE":316.4639,"ARG_OF_PERICENTER":102.8241,"MEAN_ANOMALY":257.2915,"EPHEMERIS_TYPE":0,"CLASSIFICATION_TYPE":"U","NORAD_CAT_ID":58891,"ELEMENT_SET_NO":999,"REV_AT_EPOCH":11864,"BSTAR":6.1060741e-5,"MEAN_MOTION_DOT":1.45e-5,"MEAN_MOTION_DDOT":0},{"OBJECT_NAME":"STARLINK-31255","OBJECT_ID":"2024-020T","EPOCH":"2026-03-02T12:41:46.167648","MEAN_MOTION":15.30188206,"ECCENTRICITY":0.0001107,"INCLINATION":53.1613,"RA_OF_ASC_NODE":355.7601,"ARG_OF_PERICENTER":110.7698,"MEAN_ANOMALY":249.3422,"EPHEMERIS_TYPE":0,"CLASSIFICATION_TYPE":"U","NORAD_CAT_ID":58893,"ELEMENT_SET_NO":999,"REV_AT_EPOCH":11697,"BSTAR":4.1019e-6,"MEAN_MOTION_DOT":-2.38e-6,"MEAN_MOTION_DDOT":0},{"OBJECT_NAME":"STARLINK-31243","OBJECT_ID":"2024-020U","EPOCH":"2026-03-02T12:46:19.612416","MEAN_MOTION":15.30187224,"ECCENTRICITY":0.0001208,"INCLINATION":53.1629,"RA_OF_ASC_NODE":355.7787,"ARG_OF_PERICENTER":93.8372,"MEAN_ANOMALY":266.2767,"EPHEMERIS_TYPE":0,"CLASSIFICATION_TYPE":"U","NORAD_CAT_ID":58894,"ELEMENT_SET_NO":999,"REV_AT_EPOCH":11697,"BSTAR":2.1055e-5,"MEAN_MOTION_DOT":2.64e-6,"MEAN_MOTION_DDOT":0},{"OBJECT_NAME":"STARLINK-31218","OBJECT_ID":"2024-020V","EPOCH":"2026-03-02T12:50:53.218752","MEAN_MOTION":15.30187936,"ECCENTRICITY":0.0001393,"INCLINATION":53.1632,"RA_OF_ASC_NODE":355.7997,"ARG_OF_PERICENTER":95.3672,"MEAN_ANOMALY":264.7488,"EPHEMERIS_TYPE":0,"CLASSIFICATION_TYPE":"U","NORAD_CAT_ID":58895,"ELEMENT_SET_NO":999,"REV_AT_EPOCH":11697,"BSTAR":-1.5979e-5,"MEAN_MOTION_DOT":-8.32e-6,"MEAN_MOTION_DDOT":0},{"OBJECT_NAME":"STARLINK-31190","OBJECT_ID":"2024-020X","EPOCH":"2026-03-02T05:11:15.250272","MEAN_MOTION":15.30190278,"ECCENTRICITY":0.00012968,"INCLINATION":53.1621,"RA_OF_ASC_NODE":357.3618,"ARG_OF_PERICENTER":92.3125,"MEAN_ANOMALY":267.8024,"EPHEMERIS_TYPE":0,"CLASSIFICATION_TYPE":"U","NORAD_CAT_ID":58897,"ELEMENT_SET_NO":999,"REV_AT_EPOCH":11692,"BSTAR":4.2993116e-5,"MEAN_MOTION_DOT":9.14e-6,"MEAN_MOTION_DDOT":0},{"OBJECT_NAME":"STARLINK-31317","OBJECT_ID":"2024-027A","EPOCH":"2026-03-02T03:18:07.369920","MEAN_MOTION":15.30188313,"ECCENTRICITY":0.0001044,"INCLINATION":53.1606,"RA_OF_ASC_NODE":344.5908,"ARG_OF_PERICENTER":92.2711,"MEAN_ANOMALY":267.8409,"EPHEMERIS_TYPE":0,"CLASSIFICATION_TYPE":"U","NORAD_CAT_ID":58931,"ELEMENT_SET_NO":999,"REV_AT_EPOCH":11601,"BSTAR":-2.428207e-5,"MEAN_MOTION_DOT":-1.078e-5,"MEAN_MOTION_DDOT":0},{"OBJECT_NAME":"STARLINK-31378","OBJECT_ID":"2024-027B","EPOCH":"2026-03-02T04:56:44.135232","MEAN_MOTION":15.30188896,"ECCENTRICITY":0.00012846,"INCLINATION":53.1606,"RA_OF_ASC_NODE":344.3038,"ARG_OF_PERICENTER":69.0699,"MEAN_ANOMALY":291.0439,"EPHEMERIS_TYPE":0,"CLASSIFICATION_TYPE":"U","NORAD_CAT_ID":58932,"ELEMENT_SET_NO":999,"REV_AT_EPOCH":11618,"BSTAR":3.975993e-6,"MEAN_MOTION_DOT":-2.41e-6,"MEAN_MOTION_DDOT":0},{"OBJECT_NAME":"STARLINK-31350","OBJECT_ID":"2024-027C","EPOCH":"2026-03-02T18:49:32.836512","MEAN_MOTION":15.30183285,"ECCENTRICITY":9.56e-5,"INCLINATION":53.1621,"RA_OF_ASC_NODE":341.5171,"ARG_OF_PERICENTER":76.1201,"MEAN_ANOMALY":283.9906,"EPHEMERIS_TYPE":0,"CLASSIFICATION_TYPE":"U","NORAD_CAT_ID":58933,"ELEMENT_SET_NO":999,"REV_AT_EPOCH":11627,"BSTAR":-2.1874e-5,"MEAN_MOTION_DOT":-1.006e-5,"MEAN_MOTION_DDOT":0},{"OBJECT_NAME":"STARLINK-31337","OBJECT_ID":"2024-027D","EPOCH":"2026-03-02T04:38:30.077952","MEAN_MOTION":15.30185729,"ECCENTRICITY":0.00013088,"INCLINATION":53.1617,"RA_OF_ASC_NODE":344.2275,"ARG_OF_PERICENTER":90.22,"MEAN_ANOMALY":269.895,"EPHEMERIS_TYPE":0,"CLASSIFICATION_TYPE":"U","NORAD_CAT_ID":58934,"ELEMENT_SET_NO":999,"REV_AT_EPOCH":11618,"BSTAR":-4.737336e-5,"MEAN_MOTION_DOT":-1.761e-5,"MEAN_MOTION_DDOT":0}]
